{
  "type": "FeatureCollection",
  "features": [
    {
      "type": "Feature",
      "properties": {
        "norad_id": 66333,
        "name": "STARLINK-35400",
        "group": "last-30-days",
        "lat": -33.7243133582657,
        "lon": -113.57889357894646,
        "alt_km": 446.2002383615718,
        "timestamp": "2025-12-06T14:35:35.908081+00:00",
        "meta_object_name": "STARLINK-35400",
        "meta_object_id": "2025-253Q",
        "meta_epoch": "2025-12-06T08:00:01.999872",
        "meta_mean_motion": 15.4064595,
        "meta_eccentricity": 0.00015355,
        "meta_inclination": 43.0003,
        "meta_ra_of_asc_node": 22.2513,
        "meta_arg_of_pericenter": 266.8866,
        "meta_mean_anomaly": 242.2093,
        "meta_ephemeris_type": 0,
        "meta_classification_type": "U",
        "meta_norad_cat_id": 66333,
        "meta_element_set_no": 999,
        "meta_rev_at_epoch": 590,
        "meta_bstar": 0.0010828869,
        "meta_mean_motion_dot": 0.00045118,
        "meta_mean_motion_ddot": 0,
        "tle_line1": "1 66333U 25253Q   25340.33335648  .00045118  00000+0  10829-2 0  9997",
        "tle_line2": "2 66333  43.0003  22.2513 0001535 266.8866 242.2093 15.40645950  5909"
      },
      "geometry": {
        "type": "Point",
        "coordinates": [
          -113.57889357894646,
          -33.7243133582657
        ]
      }
    },
    {
      "type": "Feature",
      "properties": {
        "norad_id": 66334,
        "name": "STARLINK-35407",
        "group": "last-30-days",
        "lat": 39.80682637872924,
        "lon": 137.5537396924084,
        "alt_km": 438.70445264269165,
        "timestamp": "2025-12-06T14:35:35.908092+00:00",
        "meta_object_name": "STARLINK-35407",
        "meta_object_id": "2025-253R",
        "meta_epoch": "2025-12-06T08:00:01.999872",
        "meta_mean_motion": 15.4065225,
        "meta_eccentricity": 0.0001533,
        "meta_inclination": 43.0005,
        "meta_ra_of_asc_node": 22.5555,
        "meta_arg_of_pericenter": 259.5925,
        "meta_mean_anomaly": 125.1023,
        "meta_ephemeris_type": 0,
        "meta_classification_type": "U",
        "meta_norad_cat_id": 66334,
        "meta_element_set_no": 999,
        "meta_rev_at_epoch": 590,
        "meta_bstar": 0.00092805657,
        "meta_mean_motion_dot": 0.00038598,
        "meta_mean_motion_ddot": 0,
        "tle_line1": "1 66334U 25253R   25340.33335648  .00038598  00000+0  92806-3 0  9998",
        "tle_line2": "2 66334  43.0005  22.5555 0001533 259.5925 125.1023 15.40652250  5907"
      },
      "geometry": {
        "type": "Point",
        "coordinates": [
          137.5537396924084,
          39.80682637872924
        ]
      }
    },
    {
      "type": "Feature",
      "properties": {
        "norad_id": 66335,
        "name": "STARLINK-35417",
        "group": "last-30-days",
        "lat": 23.28702650889118,
        "lon": 48.65815228569856,
        "alt_km": 440.2720527612137,
        "timestamp": "2025-12-06T14:35:35.908103+00:00",
        "meta_object_name": "STARLINK-35417",
        "meta_object_id": "2025-253S",
        "meta_epoch": "2025-12-06T06:39:39.722112",
        "meta_mean_motion": 15.40716812,
        "meta_eccentricity": 0.0001158,
        "meta_inclination": 42.9997,
        "meta_ra_of_asc_node": 23.0549,
        "meta_arg_of_pericenter": 292.655,
        "meta_mean_anomaly": 67.4184,
        "meta_ephemeris_type": 0,
        "meta_classification_type": "U",
        "meta_norad_cat_id": 66335,
        "meta_element_set_no": 999,
        "meta_rev_at_epoch": 592,
        "meta_bstar": 0.0022532811,
        "meta_mean_motion_dot": 0.00095055,
        "meta_mean_motion_ddot": 0,
        "tle_line1": "1 66335U 25253S   25340.27754308  .00095055  00000+0  22533-2 0  9990",
        "tle_line2": "2 66335  42.9997  23.0549 0001158 292.6550  67.4184 15.40716812  5923"
      },
      "geometry": {
        "type": "Point",
        "coordinates": [
          48.65815228569856,
          23.28702650889118
        ]
      }
    },
    {
      "type": "Feature",
      "properties": {
        "norad_id": 66336,
        "name": "STARLINK-35404",
        "group": "last-30-days",
        "lat": -38.905868573787586,
        "lon": -39.488769330106805,
        "alt_km": 417.39787297145995,
        "timestamp": "2025-12-06T14:35:35.908114+00:00",
        "meta_object_name": "STARLINK-35404",
        "meta_object_id": "2025-253T",
        "meta_epoch": "2025-12-06T04:03:26.913600",
        "meta_mean_motion": 15.50163181,
        "meta_eccentricity": 0.00042305,
        "meta_inclination": 42.9981,
        "meta_ra_of_asc_node": 23.0926,
        "meta_arg_of_pericenter": 238.7044,
        "meta_mean_anomaly": 121.3402,
        "meta_ephemeris_type": 0,
        "meta_classification_type": "U",
        "meta_norad_cat_id": 66336,
        "meta_element_set_no": 999,
        "meta_rev_at_epoch": 591,
        "meta_bstar": 0.0016580736,
        "meta_mean_motion_dot": 0.0009672,
        "meta_mean_motion_ddot": 0,
        "tle_line1": "1 66336U 25253T   25340.16906150  .00096720  00000+0  16581-2 0  9999",
        "tle_line2": "2 66336  42.9981  23.0926 0004230 238.7044 121.3402 15.50163181  5917"
      },
      "geometry": {
        "type": "Point",
        "coordinates": [
          -39.488769330106805,
          -38.905868573787586
        ]
      }
    },
    {
      "type": "Feature",
      "properties": {
        "norad_id": 66337,
        "name": "STARLINK-34783",
        "group": "last-30-days",
        "lat": 36.421427072845425,
        "lon": 73.44307444251514,
        "alt_km": 438.2674820151051,
        "timestamp": "2025-12-06T14:35:35.908140+00:00",
        "meta_object_name": "STARLINK-34783",
        "meta_object_id": "2025-253U",
        "meta_epoch": "2025-12-06T03:26:29.053248",
        "meta_mean_motion": 15.40776936,
        "meta_eccentricity": 0.0001204,
        "meta_inclination": 42.9993,
        "meta_ra_of_asc_node": 23.7661,
        "meta_arg_of_pericenter": 291.0773,
        "meta_mean_anomaly": 68.9955,
        "meta_ephemeris_type": 0,
        "meta_classification_type": "U",
        "meta_norad_cat_id": 66337,
        "meta_element_set_no": 999,
        "meta_rev_at_epoch": 590,
        "meta_bstar": 0.0020359679,
        "meta_mean_motion_dot": 0.00085926,
        "meta_mean_motion_ddot": 0,
        "tle_line1": "1 66337U 25253U   25340.14339182  .00085926  00000+0  20360-2 0  9999",
        "tle_line2": "2 66337  42.9993  23.7661 0001204 291.0773  68.9955 15.40776936  5908"
      },
      "geometry": {
        "type": "Point",
        "coordinates": [
          73.44307444251514,
          36.421427072845425
        ]
      }
    },
    {
      "type": "Feature",
      "properties": {
        "norad_id": 66338,
        "name": "STARLINK-35477",
        "group": "last-30-days",
        "lat": 15.489663858328125,
        "lon": 38.48338552015414,
        "alt_km": 441.83346468342006,
        "timestamp": "2025-12-06T14:35:35.908152+00:00",
        "meta_object_name": "STARLINK-35477",
        "meta_object_id": "2025-253V",
        "meta_epoch": "2025-12-06T03:36:10.723968",
        "meta_mean_motion": 15.40742624,
        "meta_eccentricity": 8.305e-05,
        "meta_inclination": 43.0006,
        "meta_ra_of_asc_node": 23.8222,
        "meta_arg_of_pericenter": 215.6906,
        "meta_mean_anomaly": 144.3895,
        "meta_ephemeris_type": 0,
        "meta_classification_type": "U",
        "meta_norad_cat_id": 66338,
        "meta_element_set_no": 999,
        "meta_rev_at_epoch": 590,
        "meta_bstar": 0.0015078091,
        "meta_mean_motion_dot": 0.00063295,
        "meta_mean_motion_ddot": 0,
        "tle_line1": "1 66338U 25253V   25340.15012412  .00063295  00000+0  15078-2 0  9990",
        "tle_line2": "2 66338  43.0006  23.8222 0000830 215.6906 144.3895 15.40742624  5903"
      },
      "geometry": {
        "type": "Point",
        "coordinates": [
          38.48338552015414,
          15.489663858328125
        ]
      }
    },
    {
      "type": "Feature",
      "properties": {
        "norad_id": 66339,
        "name": "STARLINK-35443",
        "group": "last-30-days",
        "lat": 5.2034697457074,
        "lon": -164.7901965839853,
        "alt_km": 443.2037613197044,
        "timestamp": "2025-12-06T14:35:35.908162+00:00",
        "meta_object_name": "STARLINK-35443",
        "meta_object_id": "2025-253W",
        "meta_epoch": "2025-12-06T08:00:01.999872",
        "meta_mean_motion": 15.40733767,
        "meta_eccentricity": 0.00016237,
        "meta_inclination": 43.0006,
        "meta_ra_of_asc_node": 22.4014,
        "meta_arg_of_pericenter": 263.5793,
        "meta_mean_anomaly": 183.2713,
        "meta_ephemeris_type": 0,
        "meta_classification_type": "U",
        "meta_norad_cat_id": 66339,
        "meta_element_set_no": 999,
        "meta_rev_at_epoch": 594,
        "meta_bstar": -0.0020063598,
        "meta_mean_motion_dot": -0.000833,
        "meta_mean_motion_ddot": 0,
        "tle_line1": "1 66339U 25253W   25340.33335648 -.00083300  00000+0 -20064-2 0  9992",
        "tle_line2": "2 66339  43.0006  22.4014 0001623 263.5793 183.2713 15.40733767  5948"
      },
      "geometry": {
        "type": "Point",
        "coordinates": [
          -164.7901965839853,
          5.2034697457074
        ]
      }
    }
  ]
}